{"type": "FeatureCollection", "features": [ {"type": "Feature", "properties": {"norad_id": 40664, "name": "SKY MEXICO-1", "group": "intelsat", "lat": -0.0290744440095349, "lon": -74.75945018361736, "alt_km": 35775.09462701521, "timestamp": "2025-12-10T18:56:59.729852+00:00", "meta": {"OBJECT_NAME": "SKY MEXICO-1", "OBJECT_ID": "2015-026B", "EPOCH": "2025-12-10T04:15:38.659392", "MEAN_MOTION": 1.00270655, "ECCENTRICITY": 0.00027262, "INCLINATION": 0.029, "RA_OF_ASC_NODE": 67.5493, "ARG_OF_PERICENTER": 207.8932, "MEAN_ANOMALY": 148.8575, "EPHEMERIS_TYPE": 0, "CLASSIFICATION_TYPE": "U", "NORAD_CAT_ID": 40664, "ELEMENT_SET_NO": 999, "REV_AT_EPOCH": 3855, "BSTAR": 0, "MEAN_MOTION_DOT": -2.31e-06, "MEAN_MOTION_DDOT": 0}, "tle": {"line1": "1 40664U 15026B   25344.17753078 -.00000231  00000+0  00000+0 0  9995", "line2": "2 40664   0.0290  67.5493 0002726 207.8932 148.8575  1.00270655 38550"}}, "geometry": {"type": "Point", "coordinates": [-74.75945018361736, -0.0290744440095349]}}, {"type": "Feature", "properties": {"norad_id": 40874, "name": "INTELSAT 34 (IS-34)", "group": "intelsat", "lat": -0.006442580203862093, "lon": -51.49120666154314, "alt_km": 35788.46863599058, "timestamp": "2025-12-10T18:56:59.729863+00:00", "meta": {"OBJECT_NAME": "INTELSAT 34 (IS-34)", "OBJECT_ID": "2015-039A", "EPOCH": "2025-12-10T03:59:38.770944", "MEAN_MOTION": 1.00269978, "ECCENTRICITY": 5.547e-05, "INCLINATION": 0.0112, "RA_OF_ASC_NODE": 310.175, "ARG_OF_PERICENTER": 217.3462, "MEAN_ANOMALY": 276.0397, "EPHEMERIS_TYPE": 0, "CLASSIFICATION_TYPE": "U", "NORAD_CAT_ID": 40874, "ELEMENT_SET_NO": 999, "REV_AT_EPOCH": 3773, "BSTAR": 0, "MEAN_MOTION_DOT": -2.82e-06, "MEAN_MOTION_DDOT": 0}, "tle": {"line1": "1 40874U 15039A   25344.16642096 -.00000282  00000+0  00000+0 0  9994", "line2": "2 40874   0.0112 310.1750 0000554 217.3462 276.0397  1.00269978 37731"}}, "geometry": {"type": "Point", "coordinates": [-51.49120666154314, -0.006442580203862093]}}, {"type": "Feature", "properties": {"norad_id": 41581, "name": "INTELSAT 31 (IS-31)", "group": "intelsat", "lat": -0.012140625252813059, "lon": -91.04378871184937, "alt_km": 35780.57442594745, "timestamp": "2025-12-10T18:56:59.729875+00:00", "meta": {"OBJECT_NAME": "INTELSAT 31 (IS-31)", "OBJECT_ID": "2016-035A", "EPOCH": "2025-12-10T01:11:38.647968", "MEAN_MOTION": 1.00271715, "ECCENTRICITY": 0.0001931, "INCLINATION": 0.0151, "RA_OF_ASC_NODE": 272.9636, "ARG_OF_PERICENTER": 308.7299, "MEAN_ANOMALY": 140.183, "EPHEMERIS_TYPE": 0, "CLASSIFICATION_TYPE": "U", "NORAD_CAT_ID": 41581, "ELEMENT_SET_NO": 999, "REV_AT_EPOCH": 3478, "BSTAR": 0, "MEAN_MOTION_DOT": -1.48e-06, "MEAN_MOTION_DDOT": 0}, "tle": {"line1": "1 41581U 16035A   25344.04975287 -.00000148  00000+0  00000+0 0  9996", "line2": "2 41581   0.0151 272.9636 0001931 308.7299 140.1830  1.00271715 34788"}}, "geometry": {"type": "Point", "coordinates": [-91.04378871184937, -0.012140625252813059]}}, {"type": "Feature", "properties": {"norad_id": 41747, "name": "INTELSAT 36 (IS-36)", "group": "intelsat", "lat": 0.028492438717511774, "lon": 72.50691300276212, "alt_km": 35788.921559060494, "timestamp": "2025-12-10T18:56:59.729887+00:00", "meta": {"OBJECT_NAME": "INTELSAT 36 (IS-36)", "OBJECT_ID": "2016-053A", "EPOCH": "2025-12-10T08:41:38.596128", "MEAN_MOTION": 1.00270031, "ECCENTRICITY": 0.000143, "INCLINATION": 0.0125, "RA_OF_ASC_NODE": 8.3265, "ARG_OF_PERICENTER": 311.2269, "MEAN_ANOMALY": 318.6852, "EPHEMERIS_TYPE": 0, "CLASSIFICATION_TYPE": "U", "NORAD_CAT_ID": 41747, "ELEMENT_SET_NO": 999, "REV_AT_EPOCH": 3405, "BSTAR": 0, "MEAN_MOTION_DOT": -2e-07, "MEAN_MOTION_DDOT": 0}, "tle": {"line1": "1 41747U 16053A   25344.36225227 -.00000020  00000+0  00000+0 0  9996", "line2": "2 41747   0.0125   8.3265 0001430 311.2269 318.6852  1.00270031 34058"}}, "geometry": {"type": "Point", "coordinates": [72.50691300276212, 0.028492438717511774]}}, {"type": "Feature", "properties": {"norad_id": 41945, "name": "INTELSAT 32E (IS-32E)", "group": "intelsat", "lat": -0.030456741405422233, "lon": -39.18242631300735, "alt_km": 35785.352859124425, "timestamp": "2025-12-10T18:56:59.729898+00:00", "meta": {"OBJECT_NAME": "INTELSAT 32E (IS-32E)", "OBJECT_ID": "2017-007B", "EPOCH": "2025-12-09T20:12:55.228896", "MEAN_MOTION": 1.00269426, "ECCENTRICITY": 4.394e-05, "INCLINATION": 0.0294, "RA_OF_ASC_NODE": 72.1437, "ARG_OF_PERICENTER": 284.528, "MEAN_ANOMALY": 342.2081, "EPHEMERIS_TYPE": 0, "CLASSIFICATION_TYPE": "U", "NORAD_CAT_ID": 41945, "ELEMENT_SET_NO": 999, "REV_AT_EPOCH": 3232, "BSTAR": 0, "MEAN_MOTION_DOT": -2.66e-06, "MEAN_MOTION_DDOT": 0}, "tle": {"line1": "1 41945U 17007B   25343.84230589 -.00000266  00000+0  00000+0 0  9997", "line2": "2 41945   0.0294  72.1437 0000439 284.5280 342.2081  1.00269426 32329"}}, "geometry": {"type": "Point", "coordinates": [-39.18242631300735, -0.030456741405422233]}}, {"type": "Feature", "properties": {"norad_id": 42818, "name": "INTELSAT 35E (IS-35E)", "group": "intelsat", "lat": -0.005128860964103863, "lon": -30.4830610242125, "alt_km": 35782.591102904786, "timestamp": "2025-12-10T18:56:59.729909+00:00", "meta": {"OBJECT_NAME": "INTELSAT 35E (IS-35E)", "OBJECT_ID": "2017-041A", "EPOCH": "2025-12-09T20:15:24.988608", "MEAN_MOTION": 1.0026928, "ECCENTRICITY": 0.0002289, "INCLINATION": 0.0182, "RA_OF_ASC_NODE": 336.435, "ARG_OF_PERICENTER": 289.2922, "MEAN_ANOMALY": 82.4516, "EPHEMERIS_TYPE": 0, "CLASSIFICATION_TYPE": "U", "NORAD_CAT_ID": 42818, "ELEMENT_SET_NO": 999, "REV_AT_EPOCH": 3091, "BSTAR": 0, "MEAN_MOTION_DOT": -2.35e-06, "MEAN_MOTION_DDOT": 0}, "tle": {"line1": "1 42818U 17041A   25343.84403922 -.00000235  00000+0  00000+0 0  9994", "line2": "2 42818   0.0182 336.4350 0002289 289.2922  82.4516  1.00269280 30912"}}, "geometry": {"type": "Point", "coordinates": [-30.4830610242125, -0.005128860964103863]}}, {"type": "Feature", "properties": {"norad_id": 42950, "name": "INTELSAT 37E (IS-37E)", "group": "intelsat", "lat": -0.009847621780239672, "lon": -13.96028305555144, "alt_km": 35786.708931089095, "timestamp": "2025-12-10T18:56:59.729921+00:00", "meta": {"OBJECT_NAME": "INTELSAT 37E (IS-37E)", "OBJECT_ID": "2017-059A", "EPOCH": "2025-12-10T06:37:38.585856", "MEAN_MOTION": 1.00270776, "ECCENTRICITY": 0.0003334, "INCLINATION": 0.0135, "RA_OF_ASC_NODE": 25.5168, "ARG_OF_PERICENTER": 229.1399, "MEAN_ANOMALY": 266.0057, "EPHEMERIS_TYPE": 0, "CLASSIFICATION_TYPE": "U", "NORAD_CAT_ID": 42950, "ELEMENT_SET_NO": 999, "REV_AT_EPOCH": 3017, "BSTAR": 0, "MEAN_MOTION_DOT": -1.37e-06, "MEAN_MOTION_DDOT": 0}, "tle": {"line1": "1 42950U 17059A   25344.27614104 -.00000137  00000+0  00000+0 0  9995", "line2": "2 42950   0.0135  25.5168 0003334 229.1399 266.0057  1.00270776 30173"}}, "geometry": {"type": "Point", "coordinates": [-13.96028305555144, -0.009847621780239672]}}, {"type": "Feature", "properties": {"norad_id": 43632, "name": "AZERSPACE 2 (IS-38)", "group": "intelsat", "lat": 0.03148585698414843, "lon": 49.1202540214674, "alt_km": 35791.61786516937, "timestamp": "2025-12-10T18:56:59.729933+00:00", "meta": {"OBJECT_NAME": "AZERSPACE 2 (IS-38)", "OBJECT_ID": "2018-074A", "EPOCH": "2025-12-10T02:36:38.720736", "MEAN_MOTION": 1.00270845, "ECCENTRICITY": 0.0001522, "INCLINATION": 0.0163, "RA_OF_ASC_NODE": 347.1733, "ARG_OF_PERICENTER": 275.6759, "MEAN_ANOMALY": 260.508, "EPHEMERIS_TYPE": 0, "CLASSIFICATION_TYPE": "U", "NORAD_CAT_ID": 43632, "ELEMENT_SET_NO": 999, "REV_AT_EPOCH": 2655, "BSTAR": 0, "MEAN_MOTION_DOT": 1.4e-06, "MEAN_MOTION_DDOT": 0}, "tle": {"line1": "1 43632U 18074A   25344.10878149  .00000140  00000+0  00000+0 0  9997", "line2": "2 43632   0.0163 347.1733 0001522 275.6759 260.5080  1.00270845 26555"}}, "geometry": {"type": "Point", "coordinates": [49.1202540214674, 0.03148585698414843]}}, {"type": "Feature", "properties": {"norad_id": 43633, "name": "HORIZONS-3E", "group": "intelsat", "lat": -0.017736362450081523, "lon": 172.99674899970046, "alt_km": 35789.77385878272, "timestamp": "2025-12-10T18:56:59.729944+00:00", "meta": {"OBJECT_NAME": "HORIZONS-3E", "OBJECT_ID": "2018-074B", "EPOCH": "2025-12-10T11:00:31.490784", "MEAN_MOTION": 1.00267072, "ECCENTRICITY": 0.0001188, "INCLINATION": 0.0424, "RA_OF_ASC_NODE": 176.8678, "ARG_OF_PERICENTER": 114.5988, "MEAN_ANOMALY": 122.1073, "EPHEMERIS_TYPE": 0, "CLASSIFICATION_TYPE": "U", "NORAD_CAT_ID": 43633, "ELEMENT_SET_NO": 999, "REV_AT_EPOCH": 2644, "BSTAR": 0, "MEAN_MOTION_DOT": -2.7e-07, "MEAN_MOTION_DDOT": 0}, "tle": {"line1": "1 43633U 18074B   25344.45869781 -.00000027  00000+0  00000+0 0  9993", "line2": "2 43633   0.0424 176.8678 0001188 114.5988 122.1073  1.00267072 26445"}}, "geometry": {"type": "Point", "coordinates": [172.99674899970046, -0.017736362450081523]}}, {"type": "Feature", "properties": {"norad_id": 44333, "name": "AT&T T-16", "group": "intelsat", "lat": -0.02081523015804118, "lon": -96.86205883408415, "alt_km": 35787.8635359097, "timestamp": "2025-12-10T18:56:59.729956+00:00", "meta": {"OBJECT_NAME": "AT&T T-16", "OBJECT_ID": "2019-034A", "EPOCH": "2025-12-10T07:31:02.562240", "MEAN_MOTION": 1.00268551, "ECCENTRICITY": 5.28e-05, "INCLINATION": 0.0276, "RA_OF_ASC_NODE": 70.2757, "ARG_OF_PERICENTER": 80.1293, "MEAN_ANOMALY": 300.7785, "EPHEMERIS_TYPE": 0, "CLASSIFICATION_TYPE": "U", "NORAD_CAT_ID": 44333, "ELEMENT_SET_NO": 999, "REV_AT_EPOCH": 2374, "BSTAR": 0, "MEAN_MOTION_DOT": -1.11e-06, "MEAN_MOTION_DDOT": 0}, "tle": {"line1": "1 44333U 19034A   25344.31322410 -.00000111  00000+0  00000+0 0  9990", "line2": "2 44333   0.0276  70.2757 0000528  80.1293 300.7785  1.00268551 23744"}}, "geometry": {"type": "Point", "coordinates": [-96.86205883408415, -0.02081523015804118]}}]}